ALOS-2                  
1 39766U 14029A   26189.51115410  .00001510  00000+0  20898-3 0  9997
2 39766  97.9221 286.3707 0001629  92.1512 267.9886 14.79474550654731
KAZEOSAT 2              
1 40010U 14033A   26189.58309054  .00000770  00000+0  95023-4 0  9992
2 40010  97.5403  28.0634 0007026 245.4149 114.6336 14.85496723652132
HODOYOSHI-4             
1 40011U 14033B   26189.55057319  .00001184  00000+0  13363-3 0  9990
2 40011  97.5465  13.3428 0022161 232.7311 127.1885 14.88181268651984
DEIMOS-2                
1 40013U 14033D   26189.61900220  .00000957  00000+0  95389-4 0  9993
2 40013  97.5806  63.3524 0001104  83.4674 276.6672 14.93789001640925
HODOYOSHI-3             
1 40015U 14033F   26189.40431283  .00000661  00000+0  82233-4 0  9996
2 40015  97.6438 351.5936 0031338 285.3827  74.3927 14.85428442650773
SPOT 7                  
1 40053U 14034A   26189.55002138  .00000537  00000+0  11878-3 0  9996
2 40053  98.0614 251.4909 0001530  96.7409 263.3966 14.60978509640257
SKYSAT-B                
1 40072U 14037D   26188.83586725  .00000988  00000+0  11411-3 0  9992
2 40072  98.3849 148.9797 0004970 197.4571 162.6474 14.88079671649038
WORLDVIEW-3 (WV-3)      
1 40115U 14048A   26189.52668525  .00000641  00000+0  81264-4 0  9998
2 40115  97.8558 264.0645 0000772 165.3527 194.7711 14.85057491645073
GAOFEN-2                
1 40118U 14049A   26189.59513976  .00000496  00000+0  71028-4 0  9993
2 40118  98.0094 253.7815 0007771 153.9464 206.2141 14.80922896642402
YAOGAN-21               
1 40143U 14053A   26189.59757578  .00005520  00000+0  21265-3 0  9994
2 40143  97.1464 228.9170 0008587  29.8848 330.2881 15.26699096658222
YAOGAN-22               
1 40275U 14063A   26189.40392983 -.00000035  00000+0  30565-4 0  9997
2 40275 100.7752 341.0318 0006766 139.3312 220.8306 13.15531440562606
ASNARO                  
1 40298U 14070A   26189.56031623  .00006908  00000+0  32582-3 0  9992
2 40298  97.3439 265.0998 0006743 105.8617 254.3362 15.19765587647250
YAOGAN-24               
1 40310U 14072A   26189.56984740  .00000798  00000+0  12317-3 0  9991
2 40310  98.1517 327.0899 0014054 190.9495 169.1410 14.76114755626872
CBERS 4                 
1 40336U 14079A   26189.57506898  .00000184  00000+0  78766-4 0  9991
2 40336  98.3517 245.7350 0001074  49.0014 311.1265 14.35515581607029
YAOGAN-26               
1 40362U 14088A   26189.59777740  .00012625  00000+0  24113-3 0  9997
2 40362  97.0648 189.3170 0002933  12.5941 347.5383 15.48242372641012
SMAP                    
1 40376U 15003A   26189.48155661  .00000323  00000+0  71597-4 0  9991
2 40376  98.1280 196.2747 0001543  96.6735 263.4643 14.63385431610738
KOMPSAT-3A              
1 40536U 15014A   26189.54852483  .00021085  00000+0  29240-3 0  9999
2 40536  97.6894 182.4892 0056844  99.0388 261.7304 15.55134928625134
SENTINEL-2A             
1 40697U 15028A   26189.54335128  .00000339  00000+0  14606-3 0  9993
2 40697  98.5673 264.0919 0001242  94.4356 265.6969 14.30822445576786
GAOFEN-8                
1 40701U 15030A   26189.57178733  .00012812  00000+0  25727-3 0  9997
2 40701  97.6909  24.2366 0009935 116.6528 243.5739 15.46762862614755
CARBONITE 1 (CBNT-1)    
1 40718U 15032D   26189.56233331  .00000533  00000+0  70652-4 0  9997
2 40718  97.6524   6.7354 0013365 220.3378 139.6847 14.83652517592515
YAOGAN-27               
1 40878U 15040A   26189.54244654  .00000447  00000+0  12885-2 0  9997
2 40878 100.1169 174.9990 0008321 159.8475 200.2969 13.16073087520471
GAOFEN-9 01             
1 40894U 15047A   26189.58767262  .00000713  00000+0  93492-4 0  9992
2 40894  97.6266 224.3093 0028783  71.1583 289.2749 14.82926349583363
YAOGAN-28               
1 41026U 15064A   26189.54681245  .00004766  00000+0  17842-3 0  9997
2 41026  97.3096 327.3801 0011998 113.4981 246.7521 15.27702392593943
YAOGAN-29               
1 41038U 15069A   26189.56506970  .00000501  00000+0  68093-4 0  9996
2 41038  98.0022 218.2307 0001266  20.6466 339.4799 14.83103335573797
KENT RIDGE 1            
1 41167U 15077B   26188.98708508  .00002926  00000+0  88624-4 0  9999
2 41167  14.9792 111.2788 0008204 173.3546 186.6886 15.23256267584272
GAOFEN-4                
1 41194U 15083A   26189.63384641 -.00000320  00000+0  00000+0 0  9991
2 41194   0.4093  83.8679 0004330 118.0482  58.5592  1.00270751 38741
JASON-3                 
1 41240U 16002A   26189.59499805 -.00000039  00000+0  92612-4 0  9991
2 41240  66.0418  80.8292 0008255 271.4849  88.5224 12.87628281490009
SENTINEL-3A             
1 41335U 16011A   26189.53604943  .00000069  00000+0  46596-4 0  9993
2 41335  98.6240 256.6121 0001410  92.2011 267.9331 14.26738572541108
ZIYUAN 3-02 (ZY 3-02)   
1 41556U 16033A   26189.56679097  .00003589  00000+0  16276-3 0  9998
2 41556  97.3828 264.9299 0013369 208.5824 151.4680 15.21390954561233
CARTOSAT-2C             
1 41599U 16040A   26189.59823875  .00004487  00000+0  21597-3 0  9991
2 41599  97.4469 249.2810 0010047  64.8281 295.3994 15.19233922556965
