OBJECT_NAME,OBJECT_ID,EPOCH,MEAN_MOTION,ECCENTRICITY,INCLINATION,RA_OF_ASC_NODE,ARG_OF_PERICENTER,MEAN_ANOMALY,EPHEMERIS_TYPE,CLASSIFICATION_TYPE,NORAD_CAT_ID,ELEMENT_SET_NO,REV_AT_EPOCH,BSTAR,MEAN_MOTION_DOT,MEAN_MOTION_DDOT
ALOS-2,2014-029A,2026-07-08T12:16:03.714240,14.79474550,.0001629,97.9221,286.3707,92.1512,267.9886,0,U,39766,999,65473,.20897687E-3,.151E-4,0
KAZEOSAT 2,2014-033A,2026-07-08T13:59:39.022656,14.85496723,.0007026,97.5403,28.0634,245.4149,114.6336,0,U,40010,999,65213,.95022898E-4,.77E-5,0
HODOYOSHI-4,2014-033B,2026-07-08T13:12:49.523616,14.88181268,.00221614,97.5465,13.3428,232.7311,127.1885,0,U,40011,999,65198,.13363371E-3,.1184E-4,0
DEIMOS-2,2014-033D,2026-07-08T14:51:21.790080,14.93789001,.00011044,97.5806,63.3524,83.4674,276.6672,0,U,40013,999,64092,.95388735E-4,.957E-5,0
HODOYOSHI-3,2014-033F,2026-07-08T09:42:12.628512,14.85428442,.00313383,97.6438,351.5936,285.3827,74.3927,0,U,40015,999,65077,.82233413E-4,.661E-5,0
SPOT 7,2014-034A,2026-07-08T13:12:01.847232,14.60978509,.00015305,98.0614,251.4909,96.7409,263.3966,0,U,40053,999,64025,.11878495E-3,.537E-5,0
SKYSAT-B,2014-037D,2026-07-07T20:03:38.930400,14.88079671,.00049706,98.3849,148.9797,197.4571,162.6474,0,U,40072,999,64903,.11411415E-3,.988E-5,0
WORLDVIEW-3 (WV-3),2014-048A,2026-07-08T12:38:25.605600,14.85057491,.00007727,97.8558,264.0645,165.3527,194.7711,0,U,40115,999,64507,.81263935E-4,.641E-5,0
GAOFEN-2,2014-049A,2026-07-08T14:17:00.075264,14.80922896,.00077718,98.0094,253.7815,153.9464,206.2141,0,U,40118,999,64240,.71028338E-4,.496E-5,0
YAOGAN-21,2014-053A,2026-07-08T14:20:30.547392,15.26699096,.00085876,97.1464,228.9170,29.8848,330.2881,0,U,40143,999,65822,.21265306E-3,.552E-4,0
YAOGAN-22,2014-063A,2026-07-08T09:41:39.537312,13.15531440,.00067666,100.7752,341.0318,139.3312,220.8306,0,U,40275,999,56260,.30565201E-4,-.35E-6,0
ASNARO,2014-070A,2026-07-08T13:26:51.322272,15.19765587,.00067433,97.3439,265.0998,105.8617,254.3362,0,U,40298,999,64725,.32581542E-3,.6908E-4,0
YAOGAN-24,2014-072A,2026-07-08T13:40:34.815360,14.76114755,.00140544,98.1517,327.0899,190.9495,169.1410,0,U,40310,999,62687,.12317115E-3,.798E-5,0
CBERS 4,2014-079A,2026-07-08T13:48:05.959872,14.35515581,.00010744,98.3517,245.7350,49.0014,311.1265,0,U,40336,999,60702,.78765934E-4,.184E-5,0
YAOGAN-26,2014-088A,2026-07-08T14:20:47.967360,15.48242372,.00029331,97.0648,189.3170,12.5941,347.5383,0,U,40362,999,64101,.24112537E-3,.12625E-3,0
SMAP,2015-003A,2026-07-08T11:33:26.491104,14.63385431,.00015434,98.1280,196.2747,96.6735,263.4643,0,U,40376,999,61073,.71597078E-4,.323E-5,0
KOMPSAT-3A,2015-014A,2026-07-08T13:09:52.545312,15.55134928,.00568446,97.6894,182.4892,99.0388,261.7304,0,U,40536,999,62513,.29240455E-3,.21085E-3,0
SENTINEL-2A,2015-028A,2026-07-08T13:02:25.550592,14.30822445,.00012429,98.5673,264.0919,94.4356,265.6969,0,U,40697,999,57678,.14605598E-3,.339E-5,0
GAOFEN-8,2015-030A,2026-07-08T13:43:22.425312,15.46762862,.0009935,97.6909,24.2366,116.6528,243.5739,0,U,40701,999,61475,.2572698E-3,.12812E-3,0
CARBONITE 1 (CBNT-1),2015-032D,2026-07-08T13:29:45.597984,14.83652517,.00133652,97.6524,6.7354,220.3378,139.6847,0,U,40718,999,59251,.70651804E-4,.533E-5,0
YAOGAN-27,2015-040A,2026-07-08T13:01:07.381056,13.16073087,.00083219,100.1169,174.9990,159.8475,200.2969,0,U,40878,999,52047,.12885359E-2,.447E-5,0
GAOFEN-9 01,2015-047A,2026-07-08T14:06:14.914368,14.82926349,.00287839,97.6266,224.3093,71.1583,289.2749,0,U,40894,999,58336,.93492409E-4,.713E-5,0
YAOGAN-28,2015-064A,2026-07-08T13:07:24.595680,15.27702392,.0011998,97.3096,327.3801,113.4981,246.7521,0,U,41026,999,59394,.1784178E-3,.4766E-4,0
YAOGAN-29,2015-069A,2026-07-08T13:33:42.022080,14.83103335,.00012664,98.0022,218.2307,20.6466,339.4799,0,U,41038,999,57379,.6809306E-4,.501E-5,0
KENT RIDGE 1,2015-077B,2026-07-07T23:41:24.150912,15.23256267,.00082048,14.9792,111.2788,173.3546,186.6886,0,U,41167,999,58427,.88623783E-4,.2926E-4,0
GAOFEN-4,2015-083A,2026-07-08T15:12:44.329824,1.00270751,.000433,0.4093,83.8679,118.0482,58.5592,0,U,41194,999,3874,0,-.32E-5,0
JASON-3,2016-002A,2026-07-08T14:16:47.831520,12.87628281,.00082557,66.0418,80.8292,271.4849,88.5224,0,U,41240,999,49000,.92612052E-4,-.39E-6,0
SENTINEL-3A,2016-011A,2026-07-08T12:51:54.670752,14.26738572,.00014103,98.6240,256.6121,92.2011,267.9331,0,U,41335,999,54110,.46596188E-4,.69E-6,0
ZIYUAN 3-02 (ZY 3-02),2016-033A,2026-07-08T13:36:10.739808,15.21390954,.00133699,97.3828,264.9299,208.5824,151.4680,0,U,41556,999,56123,.16276171E-3,.3589E-4,0
CARTOSAT-2C,2016-040A,2026-07-08T14:21:27.828000,15.19233922,.00100474,97.4469,249.2810,64.8281,295.3994,0,U,41599,999,55696,.2159703E-3,.4487E-4,0
